{
    "links": {
        "self": "http://www.neowsapp.com/rest/v1/neo/3797408?api_key=iIulBulltgU6a56xZRHN4H3l9WmuAYTsLGpBGhQ2"
    },
    "id": "3797408",
    "neo_reference_id": "3797408",
    "name": "(2018 AU)",
    "designation": "2018 AU",
    "nasa_jpl_url": "http://ssd.jpl.nasa.gov/sbdb.cgi?sstr=3797408",
    "absolute_magnitude_h": 22.8,
    "estimated_diameter": {
        "kilometers": {
            "estimated_diameter_min": 0.0732073989,
            "estimated_diameter_max": 0.1636967205
        },
        "meters": {
            "estimated_diameter_min": 73.2073989347,
            "estimated_diameter_max": 163.696720474
        },
        "miles": {
            "estimated_diameter_min": 0.0454889547,
            "estimated_diameter_max": 0.1017163949
        },
        "feet": {
            "estimated_diameter_min": 240.181762721,
            "estimated_diameter_max": 537.0627483999
        }
    },
    "is_potentially_hazardous_asteroid": false,
    "close_approach_data": [
        {
            "close_approach_date": "2017-12-30",
            "close_approach_date_full": "2017-Dec-30 13:04",
            "epoch_date_close_approach": 1514639040000,
            "relative_velocity": {
                "kilometers_per_second": "8.7425652554",
                "kilometers_per_hour": "31473.2349193679",
                "miles_per_hour": "19556.2442197595"
            },
            "miss_distance": {
                "astronomical": "0.2227897856",
                "lunar": "86.6652265984",
                "kilometers": "33328877.383516672",
                "miles": "20709604.0890151936"
            },
            "orbiting_body": "Earth"
        }
    ],
    "orbital_data": {
        "orbit_id": "3",
        "orbit_determination_date": "2018-01-14 06:59:47",
        "first_observation_date": "2018-01-05",
        "last_observation_date": "2018-01-13",
        "data_arc_in_days": 8,
        "observations_used": 20,
        "orbit_uncertainty": "9",
        "minimum_orbit_intersection": ".138885",
        "jupiter_tisserand_invariant": "3.243",
        "epoch_osculation": "2458124.5",
        "eccentricity": ".5524691382631671",
        "semi_major_axis": "2.484297659541917",
        "inclination": "4.68255068747139",
        "ascending_node_longitude": "123.51281442",
        "orbital_period": "1430.223376616505",
        "perihelion_distance": "1.111799872385591",
        "perihelion_argument": "318.725790474699",
        "aphelion_distance": "3.856795446698242",
        "perihelion_time": "2458111.397409084932",
        "mean_anomaly": "3.298039178036215",
        "mean_motion": ".2517089329442061",
        "equinox": "J2000",
        "orbit_class": {
            "orbit_class_type": "AMO",
            "orbit_class_description": "Near-Earth asteroid orbits similar to that of 1221 Amor",
            "orbit_class_range": "1.017 AU < q (perihelion) < 1.3 AU"
        }
    },
    "is_sentry_object": false
}